MOLNIYA 2-9             
1 07276U 74026A   22214.50600459  .00000167  00000+0  00000+0 0  9993
2 07276  64.2803 220.7116 6463760 280.7900  17.2155  2.45097458250512
MOLNIYA 2-10            
1 07376U 74056A   22215.63537574 -.00000937  00000+0  00000+0 0  9995
2 07376  64.1850  89.9272 6734674 286.3665  13.6271  2.01177925351305
MOLNIYA 1-S             
1 07392U 74060A   22215.80351726 -.00000044  00000+0  00000+0 0  9999
2 07392   4.9994 282.2310 0011887 209.5867 183.1725  1.00198513119981
MOLNIYA 1-29            
1 07780U 75036A   22215.03566703  .00000126  00000+0 -86913-1 0  9992
2 07780  63.4163 210.0116 6898693 288.7311  11.9364  2.00629948346554
MOLNIYA 2-14            
1 08195U 75081A   22215.19165959  .00000844  00000+0  00000+0 0  9995
2 08195  63.3822 182.9415 6800534 292.9477  11.4236  2.02057109343839
MOLNIYA 1-32            
1 08601U 76006A   22215.51925525 -.00000318  00000+0 -96453-3 0  9993
2 08601  63.4776 291.0298 7250345 283.7689  11.2599  2.00094560 53607
MOLNIYA 1-36            
1 09880U 77021A   22216.21522627  .00000775  00000+0  00000+0 0  9999
2 09880  63.4749 262.2911 7178902 289.6882  10.2660  2.00890834230419
MOLNIYA 3-8             
1 10455U 77105A   22215.42708625 -.00000239  00000+0 -22202-2 0  9996
2 10455  63.3795 350.7301 7371568 282.2345  10.8304  2.00846729328087
MOLNIYA 1-40            
1 10925U 78055A   22215.59626199  .00000549  00000+0  00000+0 0  9997
2 10925  63.3406  41.4852 7261715 280.6600  11.7924  2.00687576323627
MOLNIYA 3-10            
1 11057U 78095A   22215.67922239 -.00000297  00000+0 -97896-3 0  9996
2 11057  63.1655  21.8476 5793905 310.6654  11.7509  4.09853546385679
MOLNIYA 3-13            
1 11896U 80063A   22215.32714152  .00000450  00000+0  00000+0 0  9996
2 11896  62.6925 131.5078 7099368 276.3213  14.1309  2.00652720308034
MOLNIYA 1-49            
1 12156U 81009A   22214.86566273 -.00000923  00000+0 -13723-2 0  9990
2 12156  61.7020 158.5385 7264488 262.9277  17.3916  2.05713989222447
MOLNIYA 1-52            
1 13012U 81123A   22215.65035384 -.00000742  00000+0 -72987-2 0  9997
2 13012  61.7594 272.0464 7244081 255.3920  20.9140  2.00421557297592
MOLNIYA 1-53            
1 13070U 82015A   22215.46001741 -.00000921  00000+0 -12124-1 0  9996
2 13070  62.6426 208.3959 7040530 282.7953  12.6278  2.00811178296203
MOLNIYA 3-20            
1 13875U 83015A   22214.44643472  .00000966  00000+0  10576-2 0  9997
2 13875  62.7320 345.5153 7401971 258.4403  18.0533  2.00439400224636
MOLNIYA 1-56            
1 13890U 83019A   22213.20638101 -.00000061  00000+0 -38678-3 0  9996
2 13890  63.0029  10.9745 7447278 264.4179  15.3271  1.99982893287498
MOLNIYA 1-63            
1 15429U 84124A   22215.32242936  .00001221  00000+0  00000+0 0  9997
2 15429  63.7472 163.3414 6636499 259.4455 263.4401  2.00775558275699
MOLNIYA 3-24            
1 15738U 85040A   22214.71280127 -.00000095  00000+0  00000+0 0  9993
2 15738  63.6709  74.1897 6811301 247.3047  30.7153  2.55627380305050
MOLNIYA 3-27            
1 16393U 85117A   22210.60000342 -.00000108  00000+0  00000+0 0  9994
2 16393  64.4025  76.0690 6983795 248.2638  27.9182  2.12397384275072
MOLNIYA 1-69            
1 17078U 86089A   22215.22397984  .00000048  00000+0  00000+0 0  9990
2 17078  63.9941 182.1720 6644394 257.8978  25.8351  2.00683789261769
MOLNIYA 3-31            
1 17328U 87008A   22214.81548817  .00000483  00000+0  00000+0 0  9990
2 17328  63.6967 123.2616 7039999 253.8526  23.8767  2.00592517256791
MOLNIYA 1-71            
1 18946U 88017A   22215.76103690 -.00000137  00000+0  00000+0 0  9996
2 18946  63.4170 117.2983 7154295 256.4548  21.3011  2.00656014252044
MOLNIYA 1-75            
1 19807U 89014A   22214.97395715  .00000136  00000+0  00000+0 0  9992
2 19807  64.0591 279.4998 6857047 266.8730  19.4888  2.00580974244934
MOLNIYA 1-80            
1 21118U 91012A   22216.37764830 -.00000743  00000+0  00000+0 0  9990
2 21118  65.1914 327.7014 6790312 277.0354  16.2509  2.05248531231976
MOLNIYA 3-40            
1 21196U 91022A   22210.69901965 -.00000662  00000+0  00000+0 0  9998
2 21196  65.1119 321.9155 6822161 273.8886  17.1347  2.03001340230548
MOLNIYA 1-81            
1 21426U 91043A   22215.39013676  .00000014  00000+0  00000+0 0  9992
2 21426  64.1186 338.0961 7098677 266.7653  17.4725  2.00631306228090
MOLNIYA 3-41            
1 21706U 91065A   22215.38052374 -.00000720  00000+0  00000+0 0  9999
2 21706  64.1039 160.9739 6839406 255.5005  25.1300  2.04362957227824
MOLNIYA 3-42            
1 22178U 92067A   22215.52213413  .00000228  00000+0  00000+0 0  9997
2 22178  64.6763 210.9769 6428816 266.3402  23.5230  2.20435584 81092
MOLNIYA 1-86            
1 22671U 93035A   22216.15643056  .00000197  00000+0  20136-3 0  9992
2 22671  63.0912 209.2297 4858959   7.7547 357.6527  5.62679090354933
MOLNIYA 1-87            
1 22949U 93079A   22214.88884156  .00001159  00000+0  00000+0 0  9997
2 22949  63.9690  86.9616 6876577 284.1555  13.3452  2.02850904 75878
MOLNIYA 1-88            
1 23420U 94081A   22215.13175702  .00000121  00000+0  00000+0 0  9993
2 23420  64.2813 185.3940 5804140 282.2336  21.5740  3.34498092115261
MOLNIYA 3-47            
1 23642U 95042A   22215.31352620  .00001181  00000+0  00000+0 0  9990
2 23642  64.0802  68.7166 6928240 284.4144  12.9241  2.01934713197962
MOLNIYA 1-90            
1 24960U 97054A   22215.78898858  .00000096  00000+0 -66824-3 0  9993
2 24960  63.6389 151.9123 6114407 298.4277  13.7489  3.18689846209514
MOLNIYA 1-91            
1 25485U 98054A   22215.78894715  .00000183  00000+0  22925-2 0  9994
2 25485  63.0284 142.8200 6775097 291.9010  18.3510  2.36445173179504
MOLNIYA 3-50            
1 25847U 99036A   22215.37003932  .00000101  00000+0 -17467-2 0  9991
2 25847  63.1978 327.1333 7382392 282.0381  10.8617  2.00646886169056
